NORAD_CAT_ID,OBJECT_NAME,OBJECT_TYPE,EPOCH,MEAN_MOTION,ECCENTRICITY,INCLINATION,RA_OF_ASC_NODE,ARG_OF_PERICENTER,MEAN_ANOMALY,BSTAR,MEAN_MOTION_DOT,MEAN_MOTION_DDOT,TLE_LINE0,TLE_LINE1,TLE_LINE2,SEMIMAJOR_AXIS,PERIOD,APOGEE,PERIGEE,DECAYED
49460.0,STARLINK-3140,PAYLOAD,2023-11-07 16:14:42,15.08833285,0.0001431,53.2162,88.4454,94.3801,265.7354,-5.5151e-05,-1.165e-05,0.0,0 STARLINK-3140,1 49460U 21104BE  23311.67688580 -.00001165  00000-0 -55151-4 0  9995,2 49460  53.2162  88.4454 0001431  94.3801 265.7354 15.08833285111087,6917.901,95.438,540.756,538.776,0.0
49460.0,STARLINK-3140,PAYLOAD,2023-11-08 14:30:07,15.08835792,0.0001467,53.2166,84.2833,99.2567,260.8591,0.00010951,1.455e-05,0.0,0 STARLINK-3140,1 49460U 21104BE  23312.60424926  .00001455  00000-0  10951-3 0  9999,2 49460  53.2166  84.2833 0001467  99.2567 260.8591 15.08835792110137,6917.893,95.438,540.773,538.743,0.0
49460.0,STARLINK-3140,PAYLOAD,2023-11-08 16:05:29,15.08840556,0.0001373,53.2165,83.9868,103.7567,256.3578,0.00010975,1.459e-05,0.0,0 STARLINK-3140,1 49460U 21104BE  23312.67048325  .00001459  00000-0  10975-3 0  9991,2 49460  53.2165  83.9868 0001373 103.7567 256.3578 15.08840556111238,6917.879,95.438,540.694,538.794,0.0
49460.0,STARLINK-3140,PAYLOAD,2023-11-09 01:37:49,15.08834127,0.0001445,53.2171,82.1986,109.5985,250.5163,0.00046231,7.076e-05,0.0,0 STARLINK-3140,1 49460U 21104BE  23313.06793186  .00007076  00000-0  46231-3 0  9992,2 49460  53.2171  82.1986 0001445 109.5985 250.5163 15.08834127111294,6917.898,95.438,540.763,538.764,0.0
49460.0,STARLINK-3140,PAYLOAD,2023-11-09 14:20:54,15.08835346,0.0001559,53.2183,79.8233,103.2586,256.858,0.00013662,1.887e-05,0.0,0 STARLINK-3140,1 49460U 21104BE  23313.59785425  .00001887  00000-0  13662-3 0  9993,2 49460  53.2183  79.8233 0001559 103.2586 256.8580 15.08835346110283,6917.895,95.438,540.838,538.681,0.0
49460.0,STARLINK-3140,PAYLOAD,2023-11-09 15:56:17,15.08836892,0.0001623,53.2191,79.5257,106.053,254.0641,0.00016859,2.396e-05,0.0,0 STARLINK-3140,1 49460U 21104BE  23313.66409255  .00002396  00000-0  16859-3 0  9992,2 49460  53.2191  79.5257 0001623 106.0530 254.0641 15.08836892110293,6917.89,95.438,540.878,538.632,0.0
49460.0,STARLINK-3140,PAYLOAD,2023-11-10 01:28:36,15.08839371,0.0001349,53.2179,77.7398,93.9257,266.1889,0.00013784,1.906e-05,0.0,0 STARLINK-3140,1 49460U 21104BE  23314.06153179  .00001906  00000-0  13784-3 0  9998,2 49460  53.2179  77.7398 0001349  93.9257 266.1889 15.08839371111441,6917.882,95.438,540.681,538.814,0.0
49460.0,STARLINK-3140,PAYLOAD,2023-11-10 14:11:41,15.08846773,0.0001556,53.2186,75.3625,99.7822,260.3346,5.3665e-05,5.66e-06,0.0,0 STARLINK-3140,1 49460U 21104BE  23314.59145035  .00000566  00000-0  53665-4 0  9992,2 49460  53.2186  75.3625 0001556  99.7822 260.3346 15.08846773110434,6917.86,95.437,540.801,538.648,0.0
49460.0,STARLINK-3140,PAYLOAD,2023-11-10 15:47:04,15.08848926,0.000186,53.2186,75.0642,117.9345,242.1836,5.7872e-05,6.33e-06,0.0,0 STARLINK-3140,1 49460U 21104BE  23314.65768753  .00000633  00000-0  57872-4 0  9996,2 49460  53.2186  75.0642 0001860 117.9345 242.1836 15.08848926110446,6917.853,95.437,541.005,538.431,0.0
49460.0,STARLINK-3140,PAYLOAD,2023-11-11 07:40:56,15.0883854,0.0001557,53.2183,72.0924,81.7342,278.3827,8.1843e-05,1.015e-05,0.0,0 STARLINK-3140,1 49460U 21104BE  23315.32009433  .00001015  00000-0  81843-4 0  9994,2 49460  53.2183  72.0924 0001557  81.7342 278.3827 15.08838540111635,6917.885,95.438,540.827,538.673,0.0
49460.0,STARLINK-3140,PAYLOAD,2023-11-11 14:02:28,15.0884322,0.0001482,53.2185,70.9012,92.4054,267.7108,6.4971e-05,7.46e-06,0.0,0 STARLINK-3140,1 49460U 21104BE  23315.58505080  .00000746  00000-0  64971-4 0  9994,2 49460  53.2185  70.9012 0001482  92.4054 267.7108 15.08843220110586,6917.871,95.437,540.761,538.71,0.0
49460.0,STARLINK-3140,PAYLOAD,2023-11-11 15:37:51,15.08845103,0.0001444,53.2184,70.6038,90.5058,269.61,7.9782e-05,9.82e-06,0.0,0 STARLINK-3140,1 49460U 21104BE  23315.65128911  .00000982  00000-0  79782-4 0  9994,2 49460  53.2184  70.6038 0001444  90.5058 269.6100 15.08845103110597,6917.865,95.437,540.729,538.731,0.0
49460.0,STARLINK-3140,PAYLOAD,2023-11-12 13:53:15,15.08846262,0.0001523,53.2182,66.4409,84.3718,275.7447,2.3679e-05,8.9e-07,0.0,0 STARLINK-3140,1 49460U 21104BE  23316.57864970  .00000089  00000-0  23679-4 0  9990,2 49460  53.2182  66.4409 0001523  84.3718 275.7447 15.08846262110737,6917.861,95.437,540.78,538.673,0.0
49460.0,STARLINK-3140,PAYLOAD,2023-11-13 13:44:01,15.08855009,0.0001483,53.2183,61.9793,93.4228,266.6934,0.00014121,1.961e-05,0.0,0 STARLINK-3140,1 49460U 21104BE  23317.57223884  .00001961  00000-0  14121-3 0  9995,2 49460  53.2183  61.9793 0001483  93.4228 266.6934 15.08855009110881,6917.835,95.437,540.725,538.674,0.0
49460.0,STARLINK-3140,PAYLOAD,2023-11-14 11:59:27,15.08830828,0.000174,53.2186,57.8158,100.0102,260.1086,-3.6568e-05,-8.7e-06,0.0,0 STARLINK-3140,1 49460U 21104BE  23318.49962019 -.00000870  00000-0 -36568-4 0  9997,2 49460  53.2186  57.8158 0001740 100.0102 260.1086 15.08830828112112,6917.908,95.438,540.977,538.57,0.0
49460.0,STARLINK-3140,PAYLOAD,2023-11-14 13:34:50,15.08824708,0.0001271,53.2175,57.5172,91.719,268.3948,-2.0398e-06,-3.2e-06,0.0,0 STARLINK-3140,1 49460U 21104BE  23318.56586344 -.00000320  00000-0 -20398-5 0  9993,2 49460  53.2175  57.5172 0001271  91.7190 268.3948 15.08824708111032,6917.927,95.439,540.671,538.913,0.0
49460.0,STARLINK-3140,PAYLOAD,2023-11-15 11:50:13,15.0884152,0.0001359,53.218,53.3548,88.5563,271.5585,-4.8037e-05,-1.052e-05,0.0,0 STARLINK-3140,1 49460U 21104BE  23319.49321627 -.00001052  00000-0 -48037-4 0  9999,2 49460  53.2180  53.3548 0001359  88.5563 271.5585 15.08841520112264,6917.876,95.437,540.681,538.801,0.0
49460.0,STARLINK-3140,PAYLOAD,2023-11-15 13:25:36,15.08844778,0.0001366,53.218,53.0576,89.2225,270.8924,-1.2833e-05,-4.92e-06,0.0,0 STARLINK-3140,1 49460U 21104BE  23319.55945332 -.00000492  00000-0 -12833-4 0  9993,2 49460  53.2180  53.0576 0001366  89.2225 270.8924 15.08844778111180,6917.866,95.437,540.676,538.786,0.0
49460.0,STARLINK-3140,PAYLOAD,2023-11-16 06:54:52,15.08828057,0.000133,53.2177,49.7884,85.839,274.2754,0.00014985,2.097e-05,0.0,0 STARLINK-3140,1 49460U 21104BE  23320.28810193  .00002097  00000-0  14985-3 0  9991,2 49460  53.2177  49.7884 0001330  85.8390 274.2754 15.08828057112380,6917.917,95.438,540.702,538.862,0.0
49460.0,STARLINK-3140,PAYLOAD,2023-11-16 22:48:43,15.08834557,0.0001352,53.2176,46.8151,91.1196,268.9951,0.00019088,2.751e-05,0.0,0 STARLINK-3140,1 49460U 21104BE  23320.95049942  .00002751  00000-0  19088-3 0  9997,2 49460  53.2176  46.8151 0001352  91.1196 268.9951 15.08834557112484,6917.897,95.438,540.697,538.827,0.0
49460.0,STARLINK-3140,PAYLOAD,2023-11-17 13:07:11,15.08841183,0.0001383,53.2178,44.1393,91.9919,268.1232,4.0064e-05,3.5e-06,0.0,0 STARLINK-3140,1 49460U 21104BE  23321.54665997  .00000350  00000-0  40064-4 0  9999,2 49460  53.2178  44.1393 0001383  91.9919 268.1232 15.08841183111486,6917.877,95.437,540.699,538.785,0.0
49460.0,STARLINK-3140,PAYLOAD,2023-11-17 16:17:57,15.08845211,0.0001405,53.2178,43.5443,93.6141,266.5012,5.0806e-05,5.21e-06,0.0,0 STARLINK-3140,1 49460U 21104BE  23321.67913677  .00000521  00000-0  50806-4 0  9999,2 49460  53.2178  43.5443 0001405  93.6141 266.5012 15.08845211111503,6917.864,95.437,540.701,538.758,0.0
49460.0,STARLINK-3140,PAYLOAD,2023-11-18 11:22:35,15.08841226,0.0001385,53.2194,39.975,87.4713,272.6437,1.9106e-05,1.6e-07,0.0,0 STARLINK-3140,1 49460U 21104BE  23322.47402024  .00000016  00000-0  19106-4 0  9994,2 49460  53.2194  39.9750 0001385  87.4713 272.6437 15.08841226112719,6917.877,95.437,540.7,538.784,0.0
49460.0,STARLINK-3140,PAYLOAD,2023-11-18 12:57:58,15.08842039,0.0001364,53.2193,39.6774,86.4417,273.6731,2.2777e-05,7.5e-07,0.0,0 STARLINK-3140,1 49460U 21104BE  23322.54025939  .00000075  00000-0  22777-4 0  9991,2 49460  53.2193  39.6774 0001364  86.4417 273.6731 15.08842039111639,6917.874,95.437,540.683,538.796,0.0
49460.0,STARLINK-3140,PAYLOAD,2023-11-18 22:30:17,15.08833759,0.0001144,53.2196,37.8937,91.855,268.2574,0.00013042,1.788e-05,0.0,0 STARLINK-3140,1 49460U 21104BE  23322.93769787  .00001788  00000-0  13042-3 0  9996,2 49460  53.2196  37.8937 0001144  91.8550 268.2574 15.08833759111697,6917.899,95.438,540.556,538.973,0.0
49460.0,STARLINK-3140,PAYLOAD,2023-11-19 11:13:21,15.08844873,0.0001339,53.2179,35.5162,90.3104,269.8042,8.6038e-05,1.082e-05,0.0,0 STARLINK-3140,1 49460U 21104BE  23323.46761376  .00001082  00000-0  86038-4 0  9994,2 49460  53.2179  35.5162 0001339  90.3104 269.8042 15.08844873111773,6917.865,95.437,540.657,538.804,0.0
49460.0,STARLINK-3140,PAYLOAD,2023-11-19 22:21:03,15.08847379,0.0001201,53.2176,33.4346,95.3721,264.7408,1.8147e-05,1e-08,0.0,0 STARLINK-3140,1 49460U 21104BE  23323.93129153  .00000001  00000-0  18147-4 0  9993,2 49460  53.2176  33.4346 0001201  95.3721 264.7408 15.08847379111841,6917.858,95.437,540.554,538.892,0.0
49460.0,STARLINK-3140,PAYLOAD,2023-11-20 11:04:08,15.08844457,0.0001448,53.2181,31.055,93.2962,266.8196,7.957e-05,9.79e-06,0.0,0 STARLINK-3140,1 49460U 21104BE  23324.46121202  .00000979  00000-0  79570-4 0  9990,2 49460  53.2181  31.0550 0001448  93.2962 266.8196 15.08844457111925,6917.867,95.437,540.733,538.73,0.0
49460.0,STARLINK-3140,PAYLOAD,2023-11-20 22:11:51,15.08835908,0.000173,53.2172,28.9747,80.4471,279.6717,-2.7111e-05,-7.19e-06,0.0,0 STARLINK-3140,1 49460U 21104BE  23324.92490022 -.00000719  00000-0 -27111-4 0  9998,2 49460  53.2172  28.9747 0001730  80.4471 279.6717 15.08835908111994,6917.893,95.438,540.955,538.561,0.0
49460.0,STARLINK-3140,PAYLOAD,2023-11-21 10:54:55,15.08843989,0.0001372,53.2176,26.5952,86.0907,274.0242,3.3037e-05,2.38e-06,0.0,0 STARLINK-3140,1 49460U 21104BE  23325.45481226  .00000238  00000-0  33037-4 0  9991,2 49460  53.2176  26.5952 0001372  86.0907 274.0242 15.08843989113169,6917.868,95.437,540.682,538.784,0.0
